COSMOS 2433 (720)       
1 32275U 07052A   26048.25490010 -.00000034  00000+0  00000+0 0  9990
2 32275  65.6442 319.9720 0002812 270.7018  89.3164  2.13104255142503
COSMOS 2432 (719)       
1 32276U 07052B   26049.03388833 -.00000032  00000+0  00000+0 0  9995
2 32276  65.6598 320.0711 0010924 327.4600 214.4440  2.13103432142547
COSMOS 2434 (721)       
1 32393U 07065A   26049.15435378  .00000050  00000+0  00000+0 0  9998
2 32393  64.3188 195.9273 0004261  71.7763 148.6389  2.13101398141230
COSMOS 2436 (723)       
1 32395U 07065C   26048.74283664  .00000048  00000+0  00000+0 0  9990
2 32395  64.3273 196.0121 0017676   9.0023  28.5122  2.13100352141182
COSMOS 2456 (730)       
1 36111U 09070A   26049.16204303  .00000042  00000+0  00000+0 0  9992
2 36111  64.9391  75.0321 0005892 301.1966  82.5870  2.13103798125893
COSMOS 2457 (733)       
1 36112U 09070B   26049.06788939  .00000042  00000+0  00000+0 0  9994
2 36112  64.9245  74.8817 0002754 191.0517 249.0100  2.13101178125897
COSMOS 2460 (732)       
1 36402U 10007C   26048.73700065 -.00000030  00000+0  00000+0 0  9993
2 36402  65.4893 318.5109 0001820 351.9081 194.8405  2.13106335124188
COSMOS 2476 (744)       
1 37867U 11064A   26048.43311131  .00000046  00000+0  00000+0 0  9998
2 37867  65.1993  76.9145 0025345 240.0988 212.8157  2.13103986111213
COSMOS 2477 (745)       
1 37868U 11064B   26048.68191541  .00000046  00000+0  00000+0 0  9997
2 37868  65.2058  76.9841 0022448 241.3061 223.1906  2.13103084111213
COSMOS 2475 (743)       
1 37869U 11064C   26048.72380889  .00000045  00000+0  00000+0 0  9997
2 37869  65.2128  77.0034 0028158 253.1941 199.0748  2.13101839111222
COSMOS 2485 (747)       
1 39155U 13019A   26048.24904721  .00000047  00000+0  00000+0 0  9995
2 39155  65.3498  77.6299 0025688 235.7178 124.1165  2.13103297 99727
COSMOS 2492 (754)       
1 39620U 14012A   26048.20780851 -.00000031  00000+0  00000+0 0  9992
2 39620  65.3673 318.0159 0013662 323.1488  36.8108  2.13103497 92687
COSMOS 2500 (755)       
1 40001U 14032A   26048.37912397 -.00000030  00000+0  00000+0 0  9998
2 40001  65.3027 317.7669 0005470 209.4168 150.6067  2.13106205 90908
COSMOS 2501 (702K)      
1 40315U 14075A   26049.10874931  .00000048  00000+0  00000+0 0  9994
2 40315  63.6175 194.4909 0020503 204.9920 154.8734  2.13101429 87319
COSMOS 2514 (751)       
1 41330U 16008A   26049.09314993 -.00000028  00000+0  00000+0 0  9994
2 41330  65.0915 317.0965 0009440 212.8888 147.1096  2.13102580 78087
COSMOS 2522 (752)       
1 42939U 17055A   26048.93107446  .00000048  00000+0  00000+0 0  9999
2 42939  64.0798 195.9400 0006782 224.8377 135.0721  2.13101883 65431
COSMOS 2527 (756)       
1 43508U 18053A   26048.42307211  .00000047  00000+0  00000+0 0  9996
2 43508  65.5084  77.9022 0009757 241.8865 118.0929  2.13102395 59728
COSMOS 2529 (757)       
1 43687U 18086A   26048.05078238  .00000045  00000+0  00000+0 0  9991
2 43687  64.2960 196.6473 0007394 252.6716 107.2129  2.13102087 56721
COSMOS 2534 (758)       
1 44299U 19030A   26047.95941378  .00000045  00000+0  00000+0 0  9993
2 44299  64.3695 196.6612 0009024 281.7684 142.4826  2.13102385 52363
COSMOS 2544 (759)       
1 44850U 19088A   26041.32876685 -.00000008  00000+0  00000+0 0  9992
2 44850  65.4921  77.9649 0015707 257.6447 102.2449  2.13102019 48011
COSMOS 2545 (760)       
1 45358U 20018A   26048.09401218 -.00000030  00000+0  00000+0 0  9993
2 45358  64.4276 316.6422 0008902 252.4585 107.4992  2.13102719 46109
COSMOS 2547 (705K)      
1 46805U 20075A   26048.75168365  .00000048  00000+0  00000+0 0  9998
2 46805  64.5999 196.4580 0006414 228.0788 131.8314  2.13100358 41368
COSMOS 2557 (706K)      
1 52984U 22075A   26048.44757515 -.00000033  00000+0  00000+0 0  9997
2 52984  64.3689 318.7062 0012094 283.4632  76.4550  2.13101960 28164
COSMOS 2559 (707K)      
1 54031U 22130A   26048.26692083 -.00000033  00000+0  00000+0 0  9992
2 54031  64.3411 318.7996 0010604 184.1042 175.9391  2.13101196 26139
COSMOS 2564 (761)       
1 54377U 22161A   26048.11052646  .00000046  00000+0  00000+0 0  9991
2 54377  64.7420 196.6941 0009065 206.9659 152.9527  2.13101908 25074
COSMOS 2569 (703K)      
1 57517U 23114A   26049.06215010  .00000044  00000+0  00000+0 0  9998
2 57517  65.2323  76.6374 0012718 290.4743  69.4637  2.13103968 19726
COSMOS 2584 (704K)      
1 63130U 25042A   26048.47972081  .00000045  00000+0  00000+0 0  9991
2 63130  65.0139  76.8714 0007901 234.7533 125.2493  2.13103231  7498
COSMOS 2596 (708K)      
1 65590U 25206B   26049.03380167 -.00000032  00000+0  00000+0 0  9993
2 65590  64.7033 319.1366 0013315 314.1674 228.6352  2.13100179  3373
